IRIDIUM 106             
1 41917U 17003A   26156.09530328  .00000016  00000+0 -14780-5 0  9995
2 41917  86.3960  93.6109 0001816  79.1373 281.0027 14.34217527491471
IRIDIUM 103             
1 41918U 17003B   26156.08261721  .00000126  00000+0  37976-4 0  9995
2 41918  86.3959  93.5155 0002478  82.8722 277.2755 14.34218775491497
IRIDIUM 109             
1 41919U 17003C   26156.08896216  .00000033  00000+0  47418-5 0  9999
2 41919  86.3961  93.5725 0002324  85.2543 274.8918 14.34217527491467
IRIDIUM 102             
1 41920U 17003D   26156.05724794  .00000218  00000+0  70701-4 0  9994
2 41920  86.3955  93.5096 0002289  86.0025 274.1432 14.34217341491544
IRIDIUM 105             
1 41921U 17003E   26155.73678919  .00000326  00000+0  10915-3 0  9996
2 41921  86.3970  62.0751 0002461  87.3876 272.7601 14.34224763493350
IRIDIUM 104             
1 41922U 17003F   26156.06993476  .00000051  00000+0  11260-4 0  9992
2 41922  86.3959  93.5467 0002534  85.2145 274.9340 14.34217523491536
IRIDIUM 114             
1 41923U 17003G   26156.07627661  .00000092  00000+0  25768-4 0  9997
2 41923  86.3958  93.5271 0002424  85.1403 275.0070 14.34217842491517
IRIDIUM 108             
1 41924U 17003H   26155.75572169  .00000019  00000+0 -29048-6 0  9991
2 41924  86.3965  61.9579 0002237  88.7126 271.4326 14.34218363493323
IRIDIUM 112             
1 41925U 17003J   26156.06358955  .00000113  00000+0  33349-4 0  9993
2 41925  86.3956  93.3755 0002382  87.6577 272.4892 14.34218533491537
IRIDIUM 111             
1 41926U 17003K   26156.12067433  .00000113  00000+0  33453-4 0  9995
2 41926  86.3956  93.4217 0002305  83.5304 276.6154 14.34218184491528
IRIDIUM 113             
1 42803U 17039A   26154.56572926  .00000075  00000+0  19665-4 0  9999
2 42803  86.3964 327.8750 0002357  90.6635 269.4831 14.34218836469230
IRIDIUM 123             
1 42804U 17039B   26156.07234845  .00000076  00000+0  19916-4 0  9993
2 42804  86.3975 358.7028 0002123  82.6600 277.4837 14.34217569468212
IRIDIUM 120             
1 42805U 17039C   26156.02452058  .00000262  00000+0  86590-4 0  9996
2 42805  86.3952 327.0485 0002006  92.7825 267.3601 14.34222383469437
IRIDIUM 115             
1 42806U 17039D   26156.19366622  .00000327  00000+0  91357-4 0  9995
2 42806  86.4490 327.1050 0002077  85.6139 274.5299 14.43282293472536
IRIDIUM 118             
1 42807U 17039E   26156.03429347 -.00000017  00000+0 -13294-4 0  9995
2 42807  86.3972 358.7168 0002114  89.0439 271.0999 14.34217293468200
IRIDIUM 117             
1 42808U 17039F   26155.98355241 -.00000003  00000+0 -82680-5 0  9991
2 42808  86.3971 358.6958 0002080  85.1844 274.9589 14.34217489468221
IRIDIUM 126             
1 42809U 17039G   26156.00892117  .00000240  00000+0  78697-4 0  9997
2 42809  86.3977 358.7363 0002266  84.2009 275.9445 14.34217687468208
IRIDIUM 124             
1 42810U 17039H   26156.12748392  .00000391  00000+0  11018-3 0  9997
2 42810  86.4475 295.4028 0002227  91.4545 268.6911 14.43282020473375
IRIDIUM 128             
1 42811U 17039J   26156.06942907  .00000017  00000+0 -82719-6 0  9994
2 42811  86.3975  30.2166 0001891  85.1376 275.0035 14.34217601468248
IRIDIUM 121             
1 42812U 17039K   26156.02795083 -.00000042  00000+0 -21938-4 0  9995
2 42812  86.3972 358.7555 0002001  88.6339 271.5086 14.34217234468088
IRIDIUM 133             
1 42955U 17061A   26156.03136699  .00000108  00000+0  31538-4 0  9999
2 42955  86.3981  30.3497 0002141  85.3548 274.7893 14.34215919453033
IRIDIUM 100             
1 42956U 17061B   26156.02503138  .00000014  00000+0 -19261-5 0  9992
2 42956  86.3976  30.2710 0002048  85.1985 274.9444 14.34217440453039
IRIDIUM 122             
1 42957U 17061C   26156.06308679  .00000006  00000+0 -49669-5 0  9996
2 42957  86.3975  30.2556 0002095  83.6541 276.4894 14.34217565453045
IRIDIUM 129             
1 42958U 17061D   26156.01868874  .00000077  00000+0  20287-4 0  9991
2 42958  86.3979  30.3415 0002400  89.0736 271.0734 14.34216931453052
IRIDIUM 119             
1 42959U 17061E   26155.14975382  .00000046  00000+0  92140-5 0  9992
2 42959  86.3980  30.7002 0002306  83.1909 276.9549 14.34217427452949
IRIDIUM 107             
1 42960U 17061F   26156.07577110 -.00000064  00000+0 -29973-4 0  9999
2 42960  86.3977  30.3336 0001969  77.8577 282.2839 14.34217401453088
IRIDIUM 132             
1 42961U 17061G   26156.01234613  .00000114  00000+0  33746-4 0  9999
2 42961  86.3979  30.3404 0002226  84.7254 275.4195 14.34217976453078
IRIDIUM 136             
1 42962U 17061H   26156.04405426  .00000252  00000+0  83038-4 0  9997
2 42962  86.3980  30.3336 0002242  84.4166 275.7286 14.34220241453097
IRIDIUM 139             
1 42963U 17061J   26155.70155839  .00000065  00000+0  16090-4 0  9996
2 42963  86.3982  30.5384 0002114  83.5425 276.6011 14.34216513453050
IRIDIUM 125             
1 42964U 17061K   26156.03771709  .00000122  00000+0  36523-4 0  9991
2 42964  86.3982  30.4590 0002538  75.1260 285.0217 14.34218111453118
IRIDIUM 135             
1 43070U 17083A   26154.96531418  .00000048  00000+0  10173-4 0  9995
2 43070  86.3960 327.5456 0002180  90.5448 269.5998 14.34218210442252
