OBJECT_NAME,OBJECT_ID,EPOCH,MEAN_MOTION,ECCENTRICITY,INCLINATION,RA_OF_ASC_NODE,ARG_OF_PERICENTER,MEAN_ANOMALY,EPHEMERIS_TYPE,CLASSIFICATION_TYPE,NORAD_CAT_ID,ELEMENT_SET_NO,REV_AT_EPOCH,BSTAR,MEAN_MOTION_DOT,MEAN_MOTION_DDOT
IRIDIUM 106,2017-003A,2026-06-05T02:17:14.203392,14.34217527,.0001816,86.3960,93.6109,79.1373,281.0027,0,U,41917,999,49147,-.1478E-5,.16E-6,0
IRIDIUM 103,2017-003B,2026-06-05T01:58:58.126944,14.34218775,.0002478,86.3959,93.5155,82.8722,277.2755,0,U,41918,999,49149,.37976E-4,.126E-5,0
IRIDIUM 109,2017-003C,2026-06-05T02:08:06.330624,14.34217527,.0002324,86.3961,93.5725,85.2543,274.8918,0,U,41919,999,49146,.47418E-5,.33E-6,0
IRIDIUM 102,2017-003D,2026-06-05T01:22:26.222016,14.34217341,.0002289,86.3955,93.5096,86.0025,274.1432,0,U,41920,999,49154,.70701E-4,.218E-5,0
IRIDIUM 105,2017-003E,2026-06-04T17:40:58.586016,14.34224763,.0002461,86.3970,62.0751,87.3876,272.7601,0,U,41921,999,49335,.10915E-3,.326E-5,0
IRIDIUM 104,2017-003F,2026-06-05T01:40:42.363264,14.34217523,.0002534,86.3959,93.5467,85.2145,274.9340,0,U,41922,999,49153,.1126E-4,.51E-6,0
IRIDIUM 114,2017-003G,2026-06-05T01:49:50.299104,14.34217842,.0002424,86.3958,93.5271,85.1403,275.0070,0,U,41923,999,49151,.25768E-4,.92E-6,0
IRIDIUM 108,2017-003H,2026-06-04T18:08:14.354016,14.34218363,.0002237,86.3965,61.9579,88.7126,271.4326,0,U,41924,999,49332,-.29048E-6,.19E-6,0
IRIDIUM 112,2017-003J,2026-06-05T01:31:34.137120,14.34218533,.0002382,86.3956,93.3755,87.6577,272.4892,0,U,41925,999,49153,.33349E-4,.113E-5,0
IRIDIUM 111,2017-003K,2026-06-05T02:53:46.262112,14.34218184,.0002305,86.3956,93.4217,83.5304,276.6154,0,U,41926,999,49152,.33453E-4,.113E-5,0
IRIDIUM 113,2017-039A,2026-06-03T13:34:39.008064,14.34218836,.00023578,86.3964,327.8750,90.6635,269.4831,0,U,42803,999,46923,.19664925E-4,.75E-6,0
IRIDIUM 123,2017-039B,2026-06-05T01:44:10.906080,14.34217569,.0002123,86.3975,358.7028,82.6600,277.4837,0,U,42804,999,46821,.19916E-4,.76E-6,0
IRIDIUM 120,2017-039C,2026-06-05T00:35:18.578112,14.34222383,.0002006,86.3952,327.0485,92.7825,267.3601,0,U,42805,999,46943,.8659E-4,.262E-5,0
IRIDIUM 115,2017-039D,2026-06-05T04:38:52.761408,14.43282293,.0002077,86.4490,327.1050,85.6139,274.5299,0,U,42806,999,47253,.91357E-4,.327E-5,0
IRIDIUM 118,2017-039E,2026-06-05T00:49:22.955808,14.34217293,.0002114,86.3972,358.7168,89.0439,271.0999,0,U,42807,999,46820,-.13294E-4,-.17E-6,0
IRIDIUM 117,2017-039F,2026-06-04T23:36:18.928224,14.34217489,.000208,86.3971,358.6958,85.1844,274.9589,0,U,42808,999,46822,-.8268E-5,-.3E-7,0
IRIDIUM 126,2017-039G,2026-06-05T00:12:50.789088,14.34217687,.0002266,86.3977,358.7363,84.2009,275.9445,0,U,42809,999,46820,.78697E-4,.24E-5,0
IRIDIUM 124,2017-039H,2026-06-05T03:03:34.610688,14.43282020,.0002227,86.4475,295.4028,91.4545,268.6911,0,U,42810,999,47337,.11018E-3,.391E-5,0
IRIDIUM 128,2017-039J,2026-06-05T01:39:58.671648,14.34217601,.0001891,86.3975,30.2166,85.1376,275.0035,0,U,42811,999,46824,-.82719E-6,.17E-6,0
IRIDIUM 121,2017-039K,2026-06-05T00:40:14.951712,14.34217234,.0002001,86.3972,358.7555,88.6339,271.5086,0,U,42812,999,46808,-.21938E-4,-.42E-6,0
IRIDIUM 133,2017-061A,2026-06-05T00:45:10.107936,14.34215919,.0002141,86.3981,30.3497,85.3548,274.7893,0,U,42955,999,45303,.31538E-4,.108E-5,0
IRIDIUM 100,2017-061B,2026-06-05T00:36:02.711232,14.34217440,.0002048,86.3976,30.2710,85.1985,274.9444,0,U,42956,999,45303,-.19261E-5,.14E-6,0
IRIDIUM 122,2017-061C,2026-06-05T01:30:50.698656,14.34217565,.0002095,86.3975,30.2556,83.6541,276.4894,0,U,42957,999,45304,-.49669E-5,.6E-7,0
IRIDIUM 129,2017-061D,2026-06-05T00:26:54.707136,14.34216931,.00024,86.3979,30.3415,89.0736,271.0734,0,U,42958,999,45305,.20287E-4,.77E-6,0
IRIDIUM 119,2017-061E,2026-06-04T03:35:38.730048,14.34217427,.00023063,86.3980,30.7002,83.1909,276.9549,0,U,42959,999,45294,.9213986E-5,.46E-6,0
IRIDIUM 107,2017-061F,2026-06-05T01:49:06.623040,14.34217401,.0001969,86.3977,30.3336,77.8577,282.2839,0,U,42960,999,45308,-.29973E-4,-.64E-6,0
IRIDIUM 132,2017-061G,2026-06-05T00:17:46.705632,14.34217976,.0002226,86.3979,30.3404,84.7254,275.4195,0,U,42961,999,45307,.33746E-4,.114E-5,0
IRIDIUM 136,2017-061H,2026-06-05T01:03:26.288064,14.34220241,.0002242,86.3980,30.3336,84.4166,275.7286,0,U,42962,999,45309,.83038E-4,.252E-5,0
IRIDIUM 139,2017-061J,2026-06-04T16:50:14.644896,14.34216513,.0002114,86.3982,30.5384,83.5425,276.6011,0,U,42963,999,45305,.1609E-4,.65E-6,0
IRIDIUM 125,2017-061K,2026-06-05T00:54:18.756576,14.34218111,.0002538,86.3982,30.4590,75.1260,285.0217,0,U,42964,999,45311,.36523E-4,.122E-5,0
IRIDIUM 135,2017-083A,2026-06-03T23:10:03.145152,14.34218210,.000218,86.3960,327.5456,90.5448,269.5998,0,U,43070,999,44225,.10173E-4,.48E-6,0
